#aV2024  8 18  0  0  0.00000000     288 DD+AD WGS84 FIT  NGA
## 2328      0.00000000   300.00000000 60540 0.0000000000000
+   31     2  3  4  5  6  7  8  9 10 11 12 13 14 15 16 17 18
+         19 20 21 22 23 24 25 26 27 28 29 30 31 32  0  0  0
+          0  0  0  0  0  0  0  0  0  0  0  0  0  0  0  0  0
+          0  0  0  0  0  0  0  0  0  0  0  0  0  0  0  0  0
+          0  0  0  0  0  0  0  0  0  0  0  0  0  0  0  0  0
++         2  2  2  2  2  2  2  2  2  2  2  2  2  2  2  2  2
++         2  2  2  2  2  2  2  2  2  2  2  2  2  2  0  0  0
++         0  0  0  0  0  0  0  0  0  0  0  0  0  0  0  0  0
++         0  0  0  0  0  0  0  0  0  0  0  0  0  0  0  0  0
++         0  0  0  0  0  0  0  0  0  0  0  0  0  0  0  0  0
%c cc cc ccc ccc cccc cccc cccc cccc ccccc ccccc ccccc ccccc
%c cc cc ccc ccc cccc cccc cccc cccc ccccc ccccc ccccc ccccc
%f  0.0000000  0.000000000  0.00000000000  0.000000000000000
%f  0.0000000  0.000000000  0.00000000000  0.000000000000000
%i    0    0    0    0      0      0      0      0         0
%i    0    0    0    0      0      0      0      0         0
/*      NGA, ST. LOUIS,MO.                                  
/*   EPHEMERIS COMPUTED FROM 2 DAYS OF DATA                 
/*   EPOCHA v9 SMOOTHER                                     
/*   G2296 IERS2010 SATIGS SATAPC                           
*  2024  8 18 22  0  0.00000000
P  2 -19977.072575  -9273.541747  15544.189480   -376.236552                    
V  2  -9795.651788 -16064.645355 -22561.276178      0.076858                    
P  3 -17127.971761   3874.939985  19723.047884    505.181580                    
V  3  11473.790282 -22663.054745  14403.948884      0.145524                    
P  4 -26615.473911   -888.810399    688.491805    426.782545                    
V  4    892.364903  -2524.546593  31757.755314      0.073959                    
P  5   9932.329729  12705.726804 -21274.539947   -183.653150                    
V  5 -12279.865026  23566.055752   8484.791964     -0.012758                    
P  6   2347.967720  22380.448946  14086.934866     89.678333                    
V  6 -10262.190609 -14584.657034  25094.213888     -0.246085                    
P  7 -12924.232095   7975.254011 -21261.437594    -49.789861                    
V  7 -14830.510242 -24097.776572   -473.066976      0.057055                    
P  8 -22975.333869  -7157.162286 -11817.023819    320.670345                    
V  8  14548.186140  -3063.450736 -26257.218334      0.143500                    
P  9 -23369.333383   8005.612736  -9923.576794    319.720816                    
V  9 -12554.723114  -1925.982254  28210.693848      0.156158                    
P 10   9731.627931 -24094.939995   4757.184603    -97.954840                    
V 10   4787.556860  -3997.496980 -31741.644154     -0.112268                    
P 11  12319.642107  23565.372537    584.638619   -723.353868                    
V 11  -2612.064059    611.955998  31822.693415     -0.053853                    
P 12  16652.707349    445.842712  20396.165402   -531.386061                    
V 12 -13547.085302  22848.172878  10464.192679     -0.029303                    
P 13  15899.056980  13500.877612 -16804.523687    671.580929                    
V 13 -20808.102121  -1168.657294 -20670.166618      0.022028                    
P 14 -12786.447654  23128.170911    800.345874    475.515305                    
V 14  -3533.500347   -929.449682 -31516.970853      0.086951                    
P 15  23540.360535   4826.279979 -12017.729516    194.141185                    
V 15 -13771.814111   5190.856932 -25839.313959      0.043323                    
P 16  -5919.888313 -16484.262536 -20169.025265   -204.924681                    
V 16  14971.520071 -20072.256258  12653.782433      0.103560                    
P 17 -11007.880390  13630.033283  20433.180986    651.238416                    
V 17 -24889.033505  -1846.763728 -12270.905176     -0.097298                    
P 18  12162.982661  -8686.209326 -21929.682797   -647.209847                    
V 18  14160.998274  23987.099481  -1855.625720     -0.030252                    
P 19   -890.733797  14981.865972  21757.354344    526.386337                    
V 19 -27871.213885  -2526.854040    186.204153      0.051134                    
P 20   4038.164553  21495.894963 -15106.378766    371.546188                    
V 20  -8131.213264  17578.481838  22590.775646     -0.004020                    
P 21 -20241.401182 -14565.071279  10943.059063    103.319555                    
V 21  -6441.095028 -11308.631952 -27011.975583     -0.004722                    
P 22  -8141.430123  23802.258492   9387.177604    -52.695967                    
V 22  -8154.296669   8065.696641 -28513.414131     -0.041076                    
P 23  16066.558406 -19405.713528  -8026.355102    300.364600                    
V 23  -2722.407928  10147.455885 -30094.188222      0.086193                    
P 24  20278.700146  11473.220312  12682.861655   -486.389239                    
V 24   7790.697974  15038.532754 -24790.544608     -0.005465                    
P 25  18202.554888 -11857.498905  14765.408970    499.353396                    
V 25  -6803.801251  18431.584437  22928.310599      0.001812                    
P 26   1873.752730 -24031.198919 -10881.550317     97.764696                    
V 26   8828.287046 -11150.365177  26898.860037     -0.077550                    
P 27 -13753.418614 -12970.160558 -19113.066254    -33.175780                    
V 27  23475.783369  -1749.612456 -15533.734410     -0.004526                    
P 28  -1026.517086 -21504.084463  15543.917737   -377.774890                    
V 28  12398.698268  15505.105763  22255.047703     -0.147873                    
P 29  25485.923269  -3362.371090  -6983.139602   -583.276393                    
V 29   8626.692744   2764.821338  30225.107869      0.022284                    
P 30  -5049.295981  18064.294862 -18551.461644   -337.552668                    
V 30 -14116.605498 -19568.306839 -15353.668237      0.068235                    
P 31  -9650.956070 -23953.641691   5036.265427   -225.718628                    
V 31   6221.788498   4213.256108  30986.344986      0.003954                    
P 32   8431.754121 -14635.033057  20664.202082   -604.753950                    
V 32  25817.493972    209.710376 -10692.233172      0.029159                    
EOF
